{
    "links": {
        "self": "http://www.neowsapp.com/rest/v1/neo/3544949?api_key=iIulBulltgU6a56xZRHN4H3l9WmuAYTsLGpBGhQ2"
    },
    "id": "3544949",
    "neo_reference_id": "3544949",
    "name": "(2010 PS65)",
    "designation": "2010 PS65",
    "nasa_jpl_url": "http://ssd.jpl.nasa.gov/sbdb.cgi?sstr=3544949",
    "absolute_magnitude_h": 24.7,
    "estimated_diameter": {
        "kilometers": {
            "estimated_diameter_min": 0.0305179233,
            "estimated_diameter_max": 0.0682401509
        },
        "meters": {
            "estimated_diameter_min": 30.5179232594,
            "estimated_diameter_max": 68.2401509401
        },
        "miles": {
            "estimated_diameter_min": 0.0189629525,
            "estimated_diameter_max": 0.0424024508
        },
        "feet": {
            "estimated_diameter_min": 100.1244233463,
            "estimated_diameter_max": 223.8850168104
        }
    },
    "is_potentially_hazardous_asteroid": false,
    "close_approach_data": [
        {
            "close_approach_date": "2002-12-16",
            "close_approach_date_full": "2002-Dec-16 05:13",
            "epoch_date_close_approach": 1040015580000,
            "relative_velocity": {
                "kilometers_per_second": "4.8011782737",
                "kilometers_per_hour": "17284.2417854031",
                "miles_per_hour": "10739.7556804911"
            },
            "miss_distance": {
                "astronomical": "0.6617326521",
                "lunar": "257.4140016669",
                "kilometers": "98993795.263611027",
                "miles": "61511892.0324730926"
            },
            "orbiting_body": "Juptr"
        },
        {
            "close_approach_date": "2010-08-08",
            "close_approach_date_full": "2010-Aug-08 20:11",
            "epoch_date_close_approach": 1281298260000,
            "relative_velocity": {
                "kilometers_per_second": "7.641263261",
                "kilometers_per_hour": "27508.5477394943",
                "miles_per_hour": "17092.7417884652"
            },
            "miss_distance": {
                "astronomical": "0.0459397037",
                "lunar": "17.8705447393",
                "kilometers": "6872481.821951119",
                "miles": "4270362.1848346822"
            },
            "orbiting_body": "Earth"
        },
        {
            "close_approach_date": "2026-11-15",
            "close_approach_date_full": "2026-Nov-15 23:14",
            "epoch_date_close_approach": 1794784440000,
            "relative_velocity": {
                "kilometers_per_second": "8.5533918106",
                "kilometers_per_hour": "30792.2105180177",
                "miles_per_hour": "19133.0821410427"
            },
            "miss_distance": {
                "astronomical": "1.8378692455",
                "lunar": "714.9311364995",
                "kilometers": "274941324.465307085",
                "miles": "170840617.038064373"
            },
            "orbiting_body": "Juptr"
        }
    ],
    "orbital_data": {
        "orbit_id": "20",
        "orbit_determination_date": "2017-04-06 08:56:59",
        "first_observation_date": "2010-08-13",
        "last_observation_date": "2010-09-15",
        "data_arc_in_days": 33,
        "observations_used": 73,
        "orbit_uncertainty": "7",
        "minimum_orbit_intersection": ".0411697",
        "jupiter_tisserand_invariant": "2.962",
        "epoch_osculation": "2459000.5",
        "eccentricity": ".6328270046761383",
        "semi_major_axis": "2.872861233255678",
        "inclination": ".5360178744912378",
        "ascending_node_longitude": "160.6336645016252",
        "orbital_period": "1778.567697147154",
        "perihelion_distance": "1.054837064164291",
        "perihelion_argument": "153.0654054180513",
        "aphelion_distance": "4.690885402347066",
        "perihelion_time": "2458972.755121417731",
        "mean_anomaly": "5.615842627546942",
        "mean_motion": ".2024100632084146",
        "equinox": "J2000",
        "orbit_class": {
            "orbit_class_type": "AMO",
            "orbit_class_description": "Near-Earth asteroid orbits similar to that of 1221 Amor",
            "orbit_class_range": "1.017 AU < q (perihelion) < 1.3 AU"
        }
    },
    "is_sentry_object": false
}